Satellite: DO-64
Catalog number: 32789
Epoch time:      11026.94761771
Element set:    0901
Inclination:      097.8750 deg
RA of node:       094.2534 deg
Eccentricity:    0.0014375
Arg of perigee:   275.7937 deg
Mean anomaly:     084.1639 deg
Mean motion:   14.82561842 rev/day
Decay rate:       7.57e-06 rev/day^2
Epoch rev:           14865
Checksum:              349

Satellite: CO-66
Catalog number: 32791
Epoch time:      11027.18232427
Element set:     883
Inclination:      097.8669 deg
RA of node:       093.5166 deg
Eccentricity:    0.0015013
Arg of perigee:   275.8098 deg
Mean anomaly:     084.1373 deg
Mean motion:   14.81863120 rev/day
Decay rate:      -1.40e-06 rev/day^2
Epoch rev:           14862
Checksum:              314

Satellite: RS-30
Catalog number: 32953
Epoch time:      11027.61369316
Element set:     421
Inclination:      082.4990 deg
RA of node:       250.1197 deg
Eccentricity:    0.0018972
Arg of perigee:   335.8561 deg
Mean anomaly:     024.1629 deg
Mean motion:   12.43010572 rev/day
Decay rate:        1.0e-07 rev/day^2
Epoch rev:           12162
Checksum:              266

Satellite: TACSAT-3
Catalog number: 35001
Epoch time:      11026.97344326
Element set:    0496
Inclination:      040.4553 deg
RA of node:       307.2579 deg
Eccentricity:    0.0023758
Arg of perigee:   242.4989 deg
Mean anomaly:     117.3412 deg
Mean motion:   15.44556764 rev/day
Decay rate:      4.569e-05 rev/day^2
Epoch rev:           09521
Checksum:              312

Satellite: PHARMSAT
Catalog number: 35002
Epoch time:      11026.93571651
Element set:    0465
Inclination:      040.4706 deg
RA of node:       304.9763 deg
Eccentricity:    0.0025691
Arg of perigee:   245.8997 deg
Mean anomaly:     113.9145 deg
Mean motion:   15.44787035 rev/day
Decay rate:      4.304e-05 rev/day^2
Epoch rev:           09523
Checksum:              298

Satellite: HAWKSAT1
Catalog number: 35003
Epoch time:      11026.76767609
Element set:    0499
Inclination:      040.4611 deg
RA of node:       291.3146 deg
Eccentricity:    0.0025226
Arg of perigee:   269.2924 deg
Mean anomaly:     090.5020 deg
Mean motion:   15.51355517 rev/day
Decay rate:     1.3202e-04 rev/day^2
Epoch rev:           09537
Checksum:              278

Satellite: CP6
Catalog number: 35004
Epoch time:      11026.75425618
Element set:    0502
Inclination:      040.4600 deg
RA of node:       287.5987 deg
Eccentricity:    0.0024867
Arg of perigee:   275.1507 deg
Mean anomaly:     084.6513 deg
Mean motion:   15.53548131 rev/day
Decay rate:     1.6068e-04 rev/day^2
Epoch rev:           09540
Checksum:              296

Satellite: AEROCUB3
Catalog number: 35005
Epoch time:      11006.09222617
Element set:     610
Inclination:      040.4461 deg
RA of node:       021.7975 deg
Eccentricity:    0.0025578
Arg of perigee:   084.1677 deg
Mean anomaly:     280.7191 deg
Mean motion:   16.39196088 rev/day
Decay rate:  1.4049365e-01 rev/day^2
Epoch rev:            9254
Checksum:              305

Satellite: METEOR-M
Catalog number: 35865
Epoch time:      11027.69001505
Element set:      48
Inclination:      098.7269 deg
RA of node:       084.5111 deg
Eccentricity:    0.0003225
Arg of perigee:   076.3436 deg
Mean anomaly:     283.8059 deg
Mean motion:   14.21834304 rev/day
Decay rate:       1.76e-06 rev/day^2
Epoch rev:            7062
Checksum:              282

