DO-64
1 32789U 08021G   11026.94761771  .00000757  00000-0  10060-3 0 09014
2 32789 097.8750 094.2534 0014375 275.7937 084.1639 14.82561842148650
CO-66
1 32791U 08021J   11027.18232427 -.00000140  00000-0 -11002-4 0  8830
2 32791 097.8669 093.5166 0015013 275.8098 084.1373 14.81863120148629
RS-30
1 32953U 08025A   11027.61369316  .00000010  00000-0  00000 0 0  4213
2 32953 082.4990 250.1197 0018972 335.8561 024.1629 12.43010572121620
TACSAT-3
1 35001U 09028A   11026.97344326  .00004569  00000-0  10019-3 0 04966
2 35001 040.4553 307.2579 0023758 242.4989 117.3412 15.44556764095211
PHARMSAT
1 35002U 09028B   11026.93571651  .00004304  00000-0  93802-4 0 04651
2 35002 040.4706 304.9763 0025691 245.8997 113.9145 15.44787035095239
HAWKSAT1
1 35003U 09028C   11026.76767609  .00013202  00000-0  21977-3 0 04990
2 35003 040.4611 291.3146 0025226 269.2924 090.5020 15.51355517095374
CP6
1 35004U 09028D   11026.75425618  .00016068  00000-0  24621-3 0 05028
2 35004 040.4600 287.5987 0024867 275.1507 084.6513 15.53548131095409
AEROCUB3
1 35005U 09028E   11006.09222617  .14049365  73043-5  82692-3 0  6103
2 35005 040.4461 021.7975 0025578 084.1677 280.7191 16.39196088 92544
METEOR-M
1 35865U 09049A   11027.69001505  .00000176  00000-0  10000-3 0   489
2 35865 098.7269 084.5111 0003225 076.3436 283.8059 14.21834304 70621
